DELTA 2 R/B(1)          
1 20453U 90008B   26037.08186883  .00077268  00000+0  10279-2 0  9991
2 20453  35.6065  21.5888 0095851 324.0484  35.3829 15.51612423921211
COSMOS 2058             
1 20465U 90010A   26037.06324346  .00005409  00000+0  32146-3 0  9999
2 20465  82.4633  78.5842 0012091  85.1173 275.1438 15.11029562937468
SL-14 R/B               
1 20466U 90010B   26037.18907671  .00000650  00000+0  75795-4 0  9992
2 20466  82.5032 296.9783 0020979  46.7412 313.5549 14.83541009923813
SL-14 R/B               
1 20511U 90018B   26037.04145711  .00000522  00000+0  62532-4 0  9998
2 20511  82.5185 252.6779 0015994 191.3744 168.7111 14.82112109917893
HST                     
1 20580U 90037B   26036.89949414  .00009561  00000+0  32208-3 0  9997
2 20580  28.4665 256.7833 0001910 115.5134 244.5659 15.28971962768447
SL-16 R/B               
1 20625U 90046B   26037.31002610  .00000082  00000+0  66868-4 0  9992
2 20625  70.9999   3.8134 0014581 343.2232  16.8406 14.15005288843955
COSMOS 2084             
1 20663U 90055A   26037.50496118  .00003519  00000+0  25653-3 0  9999
2 20663  62.7897  81.9221 0022026 183.5474 176.5473 15.05449161931625
SL-6 R/B(2)             
1 20666U 90055D   26036.97986805  .00004021  00000+0  30727-3 0  9996
2 20666  62.7852   1.6695 0020032 337.8166  22.2064 15.03423586933424
SL-8 R/B                
1 20775U 90078B   26037.11561343  .00020703  00000+0  61148-3 0  9991
2 20775  82.9022 279.6818 0367262 119.7813 244.0468 14.88018583804605
SL-8 R/B                
1 21088U 91006B   26037.53691723  .00000014  00000+0 -16830-5 0  9997
2 21088  82.9427 193.2071 0023558 121.1768 305.3564 13.77491937759788
OKEAN-3                 
1 21397U 91039A   26037.35698846  .00004685  00000+0  33134-3 0  9990
2 21397  82.5183   7.1883 0016467  79.4474 280.8607 15.04555101860324
COSMOS 2151             
1 21422U 91042A   26037.46465945  .00002579  00000+0  20510-3 0  9991
2 21422  82.4965 113.7960 0013133 158.6748 201.5026 14.99983634858513
